CCSDS_OMM_VERS = 2.0
CREATION_DATE  = 
ORIGINATOR     = 

OBJECT_NAME    = STARLINK-36103
OBJECT_ID      = 2025-288AC
CENTER_NAME    = EARTH
REF_FRAME      = TEME
TIME_SYSTEM    = UTC
MEAN_ELEMENT_THEORY = SGP/SGP4

EPOCH          = 2026-01-05T10:41:14.409888
MEAN_MOTION    = 15.50623869
ECCENTRICITY   = .00011033
INCLINATION    = 43.0011
RA_OF_ASC_NODE = 25.0678
ARG_OF_PERICENTER = 286.4074
MEAN_ANOMALY   = 73.6665

EPHEMERIS_TYPE = 0
CLASSIFICATION_TYPE = U
NORAD_CAT_ID   = 66985
ELEMENT_SET_NO = 999
REV_AT_EPOCH   = 556
BSTAR          = .21835215E-2
MEAN_MOTION_DOT = .130113E-2
MEAN_MOTION_DDOT = 0

CCSDS_OMM_VERS = 2.0
CREATION_DATE  = 
ORIGINATOR     = 

OBJECT_NAME    = STARLINK-36135
OBJECT_ID      = 2025-288AD
CENTER_NAME    = EARTH
REF_FRAME      = TEME
TIME_SYSTEM    = UTC
MEAN_ELEMENT_THEORY = SGP/SGP4

EPOCH          = 2026-01-05T10:40:44.698656
MEAN_MOTION    = 15.50615981
ECCENTRICITY   = .00016302
INCLINATION    = 43.0018
RA_OF_ASC_NODE = 25.0638
ARG_OF_PERICENTER = 270.9814
MEAN_ANOMALY   = 89.0860

EPHEMERIS_TYPE = 0
CLASSIFICATION_TYPE = U
NORAD_CAT_ID   = 66986
ELEMENT_SET_NO = 999
REV_AT_EPOCH   = 556
BSTAR          = .16502909E-2
MEAN_MOTION_DOT = .9782E-3
MEAN_MOTION_DDOT = 0

CCSDS_OMM_VERS = 2.0
CREATION_DATE  = 
ORIGINATOR     = 

OBJECT_NAME    = STARLINK-36147
OBJECT_ID      = 2025-288AE
CENTER_NAME    = EARTH
REF_FRAME      = TEME
TIME_SYSTEM    = UTC
MEAN_ELEMENT_THEORY = SGP/SGP4

EPOCH          = 2026-01-05T06:01:58.806048
MEAN_MOTION    = 15.50604323
ECCENTRICITY   = .0001586
INCLINATION    = 43.0004
RA_OF_ASC_NODE = 26.1916
ARG_OF_PERICENTER = 253.7852
MEAN_ANOMALY   = 106.2833

EPHEMERIS_TYPE = 0
CLASSIFICATION_TYPE = U
NORAD_CAT_ID   = 66987
ELEMENT_SET_NO = 999
REV_AT_EPOCH   = 553
BSTAR          = .1757E-2
MEAN_MOTION_DOT = .104209E-2
MEAN_MOTION_DDOT = 0

CCSDS_OMM_VERS = 2.0
CREATION_DATE  = 
ORIGINATOR     = 

OBJECT_NAME    = YAOGAN-47
OBJECT_ID      = 2025-289A
CENTER_NAME    = EARTH
REF_FRAME      = TEME
TIME_SYSTEM    = UTC
MEAN_ELEMENT_THEORY = SGP/SGP4

EPOCH          = 2025-12-28T04:16:32.643840
MEAN_MOTION    = 15.23366104
ECCENTRICITY   = .00008556
INCLINATION    = 97.5253
RA_OF_ASC_NODE = 67.3364
ARG_OF_PERICENTER = 117.9958
MEAN_ANOMALY   = 242.1365

EPHEMERIS_TYPE = 0
CLASSIFICATION_TYPE = U
NORAD_CAT_ID   = 66988
ELEMENT_SET_NO = 999
REV_AT_EPOCH   = 289
BSTAR          = .2072964E-3
MEAN_MOTION_DOT = .4855E-4
MEAN_MOTION_DDOT = 0

CCSDS_OMM_VERS = 2.0
CREATION_DATE  = 
ORIGINATOR     = 

OBJECT_NAME    = CZ-4B R/B
OBJECT_ID      = 2025-289B
CENTER_NAME    = EARTH
REF_FRAME      = TEME
TIME_SYSTEM    = UTC
MEAN_ELEMENT_THEORY = SGP/SGP4

EPOCH          = 2026-01-05T05:25:03.491904
MEAN_MOTION    = 15.73807641
ECCENTRICITY   = .0130437
INCLINATION    = 97.5197
RA_OF_ASC_NODE = 77.3564
ARG_OF_PERICENTER = 273.7453
MEAN_ANOMALY   = 84.8904

EPHEMERIS_TYPE = 0
CLASSIFICATION_TYPE = U
NORAD_CAT_ID   = 66989
ELEMENT_SET_NO = 999
REV_AT_EPOCH   = 425
BSTAR          = .68593E-3
MEAN_MOTION_DOT = .165506E-2
MEAN_MOTION_DDOT = .10553E-4

CCSDS_OMM_VERS = 2.0
CREATION_DATE  = 
ORIGINATOR     = 

OBJECT_NAME    = TJS-22
OBJECT_ID      = 2025-290A
CENTER_NAME    = EARTH
REF_FRAME      = TEME
TIME_SYSTEM    = UTC
MEAN_ELEMENT_THEORY = SGP/SGP4

EPOCH          = 2026-01-05T07:37:34.902912
MEAN_MOTION    = 1.00271438
ECCENTRICITY   = .00032957
INCLINATION    = 1.9297
RA_OF_ASC_NODE = 285.0548
ARG_OF_PERICENTER = 347.7234
MEAN_ANOMALY   = 12.9824

EPHEMERIS_TYPE = 0
CLASSIFICATION_TYPE = U
NORAD_CAT_ID   = 66990
ELEMENT_SET_NO = 999
REV_AT_EPOCH   = 39
BSTAR          = 0
MEAN_MOTION_DOT = -.6E-7
MEAN_MOTION_DDOT = 0

CCSDS_OMM_VERS = 2.0
CREATION_DATE  = 
ORIGINATOR     = 

OBJECT_NAME    = CZ-3B R/B
OBJECT_ID      = 2025-290B
CENTER_NAME    = EARTH
REF_FRAME      = TEME
TIME_SYSTEM    = UTC
MEAN_ELEMENT_THEORY = SGP/SGP4

EPOCH          = 2025-12-15T17:23:33.043200
MEAN_MOTION    = 2.38388611
ECCENTRICITY   = .7240884
INCLINATION    = 28.4636
RA_OF_ASC_NODE = 300.4666
ARG_OF_PERICENTER = 182.7002
MEAN_ANOMALY   = 168.6250

EPHEMERIS_TYPE = 0
CLASSIFICATION_TYPE = U
NORAD_CAT_ID   = 66991
ELEMENT_SET_NO = 999
REV_AT_EPOCH   = 16
BSTAR          = .75879E-3
MEAN_MOTION_DOT = .57911E-3
MEAN_MOTION_DDOT = -.20514E-6

CCSDS_OMM_VERS = 2.0
CREATION_DATE  = 
ORIGINATOR     = 

OBJECT_NAME    = 2025-292A
OBJECT_ID      = 2025-292A
CENTER_NAME    = EARTH
REF_FRAME      = TEME
TIME_SYSTEM    = UTC
MEAN_ELEMENT_THEORY = SGP/SGP4

EPOCH          = 2026-01-05T14:46:23.858688
MEAN_MOTION    = 15.04757817
ECCENTRICITY   = .00152914
INCLINATION    = 97.6500
RA_OF_ASC_NODE = 82.9326
ARG_OF_PERICENTER = 187.4067
MEAN_ANOMALY   = 172.6936

EPHEMERIS_TYPE = 0
CLASSIFICATION_TYPE = U
NORAD_CAT_ID   = 66993
ELEMENT_SET_NO = 999
REV_AT_EPOCH   = 398
BSTAR          = .47867009E-3
MEAN_MOTION_DOT = .6706E-4
MEAN_MOTION_DDOT = 0

CCSDS_OMM_VERS = 2.0
CREATION_DATE  = 
ORIGINATOR     = 

OBJECT_NAME    = 2025-292B
OBJECT_ID      = 2025-292B
CENTER_NAME    = EARTH
REF_FRAME      = TEME
TIME_SYSTEM    = UTC
MEAN_ELEMENT_THEORY = SGP/SGP4

EPOCH          = 2026-01-05T14:45:06.757056
MEAN_MOTION    = 15.04828255
ECCENTRICITY   = .00151162
INCLINATION    = 97.6510
RA_OF_ASC_NODE = 82.9367
ARG_OF_PERICENTER = 187.6945
MEAN_ANOMALY   = 172.4052

EPHEMERIS_TYPE = 0
CLASSIFICATION_TYPE = U
NORAD_CAT_ID   = 66994
ELEMENT_SET_NO = 999
REV_AT_EPOCH   = 398
BSTAR          = .53627178E-3
MEAN_MOTION_DOT = .7535E-4
MEAN_MOTION_DDOT = 0

CCSDS_OMM_VERS = 2.0
CREATION_DATE  = 
ORIGINATOR     = 

OBJECT_NAME    = 2025-292C
OBJECT_ID      = 2025-292C
CENTER_NAME    = EARTH
REF_FRAME      = TEME
TIME_SYSTEM    = UTC
MEAN_ELEMENT_THEORY = SGP/SGP4

EPOCH          = 2026-01-05T14:45:52.256160
MEAN_MOTION    = 15.04744844
ECCENTRICITY   = .00152953
INCLINATION    = 97.6501
RA_OF_ASC_NODE = 82.9330
ARG_OF_PERICENTER = 185.9557
MEAN_ANOMALY   = 174.1490

EPHEMERIS_TYPE = 0
CLASSIFICATION_TYPE = U
NORAD_CAT_ID   = 66995
ELEMENT_SET_NO = 999
REV_AT_EPOCH   = 398
BSTAR          = .59996411E-3
MEAN_MOTION_DOT = .842E-4
MEAN_MOTION_DDOT = 0

CCSDS_OMM_VERS = 2.0
CREATION_DATE  = 
ORIGINATOR     = 

OBJECT_NAME    = 2025-292D
OBJECT_ID      = 2025-292D
CENTER_NAME    = EARTH
REF_FRAME      = TEME
TIME_SYSTEM    = UTC
MEAN_ELEMENT_THEORY = SGP/SGP4

EPOCH          = 2026-01-05T14:44:26.489472
MEAN_MOTION    = 15.04794848
ECCENTRICITY   = .00144692
INCLINATION    = 97.6497
RA_OF_ASC_NODE = 82.9327
ARG_OF_PERICENTER = 189.5754
MEAN_ANOMALY   = 170.5198

EPHEMERIS_TYPE = 0
CLASSIFICATION_TYPE = U
NORAD_CAT_ID   = 66996
ELEMENT_SET_NO = 999
REV_AT_EPOCH   = 398
BSTAR          = .40096567E-3
MEAN_MOTION_DOT = .561E-4
MEAN_MOTION_DDOT = 0

CCSDS_OMM_VERS = 2.0
CREATION_DATE  = 
ORIGINATOR     = 

OBJECT_NAME    = 2025-292E
OBJECT_ID      = 2025-292E
CENTER_NAME    = EARTH
REF_FRAME      = TEME
TIME_SYSTEM    = UTC
MEAN_ELEMENT_THEORY = SGP/SGP4

EPOCH          = 2026-01-05T14:41:45.307680
MEAN_MOTION    = 15.04941491
ECCENTRICITY   = .00147725
INCLINATION    = 97.6517
RA_OF_ASC_NODE = 82.9422
ARG_OF_PERICENTER = 190.9055
MEAN_ANOMALY   = 169.1853

EPHEMERIS_TYPE = 0
CLASSIFICATION_TYPE = U
NORAD_CAT_ID   = 66997
ELEMENT_SET_NO = 999
REV_AT_EPOCH   = 397
BSTAR          = .46058991E-3
MEAN_MOTION_DOT = .6481E-4
MEAN_MOTION_DDOT = 0

