STARLINK-36103          
1 66985U 25288AC  26005.44530567  .00130113  00000+0  21835-2 0  9995
2 66985  43.0011  25.0678 0001103 286.4074  73.6665 15.50623869  5563
STARLINK-36135          
1 66986U 25288AD  26005.44496179  .00097820  00000+0  16503-2 0  9999
2 66986  43.0018  25.0638 0001630 270.9814  89.0860 15.50615981  5566
STARLINK-36147          
1 66987U 25288AE  26005.25137507  .00104209  00000+0  17570-2 0  9991
2 66987  43.0004  26.1916 0001586 253.7852 106.2833 15.50604323  5531
YAOGAN-47               
1 66988U 25289A   25362.17815560  .00004855  00000+0  20730-3 0  9990
2 66988  97.5253  67.3364 0000855 117.9958 242.1365 15.23366104  2890
CZ-4B R/B               
1 66989U 25289B   26005.22573486  .00165506  10553-4  68593-3 0  9999
2 66989  97.5197  77.3564 0130437 273.7453  84.8904 15.73807641  4255
TJS-22                  
1 66990U 25290A   26005.31776508 -.00000006  00000+0  00000+0 0  9993
2 66990   1.9297 285.0548 0003295 347.7234  12.9824  1.00271438   395
CZ-3B R/B               
1 66991U 25290B   25349.72468800  .00057911 -20514-6  75879-3 0  9998
2 66991  28.4636 300.4666 7240884 182.7002 168.6250  2.38388611   165
2025-292A               
1 66993U 25292A   26005.61555392  .00006706  00000+0  47867-3 0  9995
2 66993  97.6500  82.9326 0015291 187.4067 172.6936 15.04757817  3982
2025-292B               
1 66994U 25292B   26005.61466154  .00007535  00000+0  53627-3 0  9995
2 66994  97.6510  82.9367 0015116 187.6945 172.4052 15.04828255  3984
2025-292C               
1 66995U 25292C   26005.61518815  .00008420  00000+0  59996-3 0  9997
2 66995  97.6501  82.9330 0015295 185.9557 174.1490 15.04744844  3989
2025-292D               
1 66996U 25292D   26005.61419548  .00005610  00000+0  40097-3 0  9991
2 66996  97.6497  82.9327 0014469 189.5754 170.5198 15.04794848  3985
2025-292E               
1 66997U 25292E   26005.61232995  .00006481  00000+0  46059-3 0  9992
2 66997  97.6517  82.9422 0014772 190.9055 169.1853 15.04941491  3971
